{
  "_updated_at": "2026-04-28T05:33:04Z",
  "_source": "Celestrak GP / GitHub Actions auto-update",
  "_update_interval": "daily at UTC 02:00",
  "_warnings": [],
  "satellites": [
    {
      "name": "SES-12",
      "catnr": 43488,
      "orbit": "GEO",
      "line0": "SES-12",
      "line1": "1 43488U 18049A   26117.93887578  .00000000  00000+0  00000+0 0  9999",
      "line2": "2 43488   0.0163  59.5657 0001051 252.1783 337.1732  1.00267751 28916"
    },
    {
      "name": "SES-14",
      "catnr": 43175,
      "orbit": "GEO",
      "line0": "SES-14",
      "line1": "1 43175U 18012B   26117.91062231 -.00000286  00000+0  00000+0 0  9998",
      "line2": "2 43175   0.0382  37.5441 0001015 354.4498 104.2282  1.00270593  6522"
    },
    {
      "name": "SES-15",
      "catnr": 42709,
      "orbit": "GEO",
      "line0": "SES-15",
      "line1": "1 42709U 17026A   26117.63742905  .00000051  00000+0  00000+0 0  9995",
      "line2": "2 42709   0.0244 330.7000 0000647  43.7648 301.4726  1.00270291  6928"
    },
    {
      "name": "SES-17",
      "catnr": 49332,
      "orbit": "GEO",
      "line0": "SES-17",
      "line1": "1 49332U 21095A   26117.76406838 -.00000280  00000+0  00000+0 0  9996",
      "line2": "2 49332   0.0449  49.9381 0001021 343.3889  30.3826  1.00269908 17348"
    },
    {
      "name": "AMC-9",
      "catnr": 27820,
      "orbit": "GEO",
      "line0": "AMC-9 (GE-12)",
      "line1": "1 27820U 03024A   26117.93228907  .00000076  00000+0  00000+0 0  9996",
      "line2": "2 27820   7.7974  66.3041 0018554 345.2593 201.9322  0.99029198 83499"
    },
    {
      "name": "NSS-12",
      "catnr": 36032,
      "orbit": "GEO",
      "line0": "NSS-12",
      "line1": "1 36032U 09058A   26117.93133574  .00000064  00000+0  00000+0 0  9996",
      "line2": "2 36032   0.0662  64.0125 0005031 310.6530 233.5237  1.00272838 60412"
    },
    {
      "name": "O3b mPOWER F1",
      "catnr": 54755,
      "orbit": "MEO",
      "line0": "O3B MPOWER F1",
      "line1": "1 54755U 22174A   26117.94745581 -.00000026  00000+0  00000+0 0  9999",
      "line2": "2 54755   0.0596 347.1568 0005906  66.6398 263.9360  5.00114840 62842"
    },
    {
      "name": "O3b mPOWER F2",
      "catnr": 54756,
      "orbit": "MEO",
      "line0": "O3B MPOWER F2",
      "line1": "1 54756U 22174B   26117.33789480 -.00000027  00000+0  00000+0 0  9990",
      "line2": "2 54756   0.0561 344.9626 0005938  49.3525 325.7220  5.00115388 62907"
    },
    {
      "name": "O3b mPOWER F3",
      "catnr": 56368,
      "orbit": "MEO",
      "line0": "O3B MPOWER F3",
      "line1": "1 56368U 23059B   26117.63536895 -.00000026  00000+0  00000+0 0  9996",
      "line2": "2 56368   0.0659   2.2258 0006659  36.6086 321.2123  5.00116569 52200"
    },
    {
      "name": "O3b mPOWER F4",
      "catnr": 56367,
      "orbit": "MEO",
      "line0": "O3B MPOWER F4",
      "line1": "1 56367U 23059A   26117.60209960 -.00000026  00000+0  00000+0 0  9992",
      "line2": "2 56367   0.0649   2.4427 0007270  45.9336 311.6848  5.00115905 56067"
    },
    {
      "name": "O3b mPOWER F5",
      "catnr": 58346,
      "orbit": "MEO",
      "line0": "O3B MPOWER F5",
      "line1": "1 58346U 23175A   26117.73609271 -.00000026  00000+0  00000+0 0  9993",
      "line2": "2 58346   0.0449  11.9103 0004487  37.0323 311.0951  5.00115630 46901"
    },
    {
      "name": "O3b mPOWER F6",
      "catnr": 58347,
      "orbit": "MEO",
      "line0": "O3B MPOWER F6",
      "line1": "1 58347U 23175B   26117.63686872 -.00000026  00000+0  00000+0 0  9995",
      "line2": "2 58347   0.0514   6.2011 0004688  21.3363 332.4864  5.00116233 45823"
    }
  ]
}